{
  "version": 1,
  "fetchedAt": "2026-06-20T14:26:57.371Z",
  "source": "celestrak-gp",
  "counts": {
    "station": 24,
    "satellite": 520,
    "debris": 250
  },
  "objects": [
    {
      "id": "20465",
      "name": "COSMOS 2058",
      "noradId": 20465,
      "line1": "1 20465U 90010A   26170.91496417  .00003343  00000+0  19277-3 0  9995",
      "line2": "2 20465  82.4690 306.6647 0008901 349.8296  10.2753 15.12032178957682",
      "category": "satellite"
    },
    {
      "id": "20466",
      "name": "SL-14 R/B",
      "noradId": 20466,
      "line1": "1 20466U 90010B   26171.00047036  .00000285  00000+0  31597-4 0  9998",
      "line2": "2 20466  82.5014 171.3027 0018854 326.6581  33.3445 14.83647681943655",
      "category": "satellite"
    },
    {
      "id": "20511",
      "name": "SL-14 R/B",
      "noradId": 20511,
      "line1": "1 20511U 90018B   26171.25179000  .00000310  00000+0  35766-4 0  9992",
      "line2": "2 20511  82.5212 127.2432 0017579 112.4298 247.8781 14.82217814937776",
      "category": "satellite"
    },
    {
      "id": "20580",
      "name": "HST",
      "noradId": 20580,
      "line1": "1 20580U 90037B   26171.07700591  .00005529  00000+0  17304-3 0  9998",
      "line2": "2 20580  28.4722  60.8244 0001639 173.2571 186.8048 15.30775367789015",
      "category": "satellite"
    },
    {
      "id": "20625",
      "name": "SL-16 R/B",
      "noradId": 20625,
      "line1": "1 20625U 90046B   26171.19996259 -.00000004  00000+0  22302-4 0  9998",
      "line2": "2 20625  71.0002  82.6208 0013104 157.1855 202.9852 14.15027279862893",
      "category": "satellite"
    },
    {
      "id": "20663",
      "name": "COSMOS 2084",
      "noradId": 20663,
      "line1": "1 20663U 90055A   26171.18198854  .00001552  00000+0  11935-3 0  9991",
      "line2": "2 20663  62.7899 345.8689 0005703 284.0321  76.0145 15.06126295951755",
      "category": "satellite"
    },
    {
      "id": "20666",
      "name": "SL-6 R/B(2)",
      "noradId": 20666,
      "line1": "1 20666U 90055D   26171.24069568  .00001088  00000+0  91711-4 0  9995",
      "line2": "2 20666  62.7822 264.9857 0041153   5.5892 354.5658 15.04011218953616",
      "category": "satellite"
    },
    {
      "id": "20775",
      "name": "SL-8 R/B",
      "noradId": 20775,
      "line1": "1 20775U 90078B   26170.94397600  .00021152  00000+0  59677-3 0  9996",
      "line2": "2 20775  82.9018 159.1544 0350219  29.1998 332.8304 14.92432935824535",
      "category": "satellite"
    },
    {
      "id": "21088",
      "name": "SL-8 R/B",
      "noradId": 21088,
      "line1": "1 21088U 91006B   26171.19651610  .00000061  00000+0  46017-4 0  9999",
      "line2": "2 21088  82.9426  93.7952 0023782 106.5931   3.4156 13.77506098778180",
      "category": "satellite"
    },
    {
      "id": "21397",
      "name": "OKEAN-3",
      "noradId": 21397,
      "line1": "1 21397U 91039A   26171.19634974  .00002293  00000+0  15795-3 0  9999",
      "line2": "2 21397  82.5163 237.4637 0013768 346.9104  13.1763 15.05337458880450",
      "category": "satellite"
    },
    {
      "id": "21422",
      "name": "COSMOS 2151",
      "noradId": 21422,
      "line1": "1 21422U 91042A   26171.26078684  .00001009  00000+0  77927-4 0  9990",
      "line2": "2 21422  82.4961 344.7143 0013753  74.7946 285.4798 15.00445097878578",
      "category": "satellite"
    },
    {
      "id": "21423",
      "name": "SL-14 R/B",
      "noradId": 21423,
      "line1": "1 21423U 91042B   26171.25895975  .00000285  00000+0  33008-4 0  9997",
      "line2": "2 21423  82.4929 124.0149 0015419 263.7050  96.2408 14.81904056868269",
      "category": "satellite"
    },
    {
      "id": "21574",
      "name": "ERS-1",
      "noradId": 21574,
      "line1": "1 21574U 91050A   26171.01462127  .00000124  00000+0  54570-4 0  9995",
      "line2": "2 21574  98.7796 191.7818 0030736 258.2342 101.5397 14.39518368830451",
      "category": "satellite"
    },
    {
      "id": "21610",
      "name": "ARIANE 40 R/B",
      "noradId": 21610,
      "line1": "1 21610U 91050F   26171.10009982  .00000190  00000+0  69104-4 0  9994",
      "line2": "2 21610  98.1874 219.4036 0004331 115.1569 245.0072 14.42958465833768",
      "category": "satellite"
    },
    {
      "id": "21819",
      "name": "INTERCOSMOS 25",
      "noradId": 21819,
      "line1": "1 21819U 91086A   26171.16565212  .00000818  00000+0  16309-3 0  9998",
      "line2": "2 21819  82.6051 248.0074 1483953 255.9628  87.2569 12.12199832509100",
      "category": "satellite"
    },
    {
      "id": "21876",
      "name": "SL-8 R/B",
      "noradId": 21876,
      "line1": "1 21876U 92008B   26171.31527164  .00000125  00000+0  11334-3 0  9991",
      "line2": "2 21876  82.9260 191.4618 0034029 205.7684 165.3417 13.75977731723530",
      "category": "satellite"
    },
    {
      "id": "21938",
      "name": "SL-8 R/B",
      "noradId": 21938,
      "line1": "1 21938U 92020B   26171.20060138  .00000073  00000+0  59609-4 0  9995",
      "line2": "2 21938  82.9305  77.6193 0029528  14.3464 139.5768 13.75549166715226",
      "category": "satellite"
    },
    {
      "id": "21949",
      "name": "USA 81",
      "noradId": 21949,
      "line1": "1 21949U 92023A   26171.20881182  .00000132  00000+0  41586-4 0  9991",
      "line2": "2 21949  85.0074  72.2636 0002753  82.1714 277.9792 14.32398912109462",
      "category": "satellite"
    },
    {
      "id": "22219",
      "name": "COSMOS 2219",
      "noradId": 22219,
      "line1": "1 22219U 92076A   26171.30307356  .00000330  00000+0  19802-3 0  9992",
      "line2": "2 22219  71.0582 163.5577 0016756  39.1666 321.0666 14.14101168732880",
      "category": "satellite"
    },
    {
      "id": "22220",
      "name": "SL-16 R/B",
      "noradId": 22220,
      "line1": "1 22220U 92076B   26171.22872490  .00000249  00000+0  14782-3 0  9992",
      "line2": "2 22220  71.0008 332.3736 0014757 294.6810 237.9534 14.16873851736358",
      "category": "satellite"
    },
    {
      "id": "22236",
      "name": "COSMOS 2221",
      "noradId": 22236,
      "line1": "1 22236U 92080A   26171.01411493  .00001046  00000+0  89564-4 0  9990",
      "line2": "2 22236  82.5028 181.0561 0013519 202.2400 157.8237 14.96539106796091",
      "category": "satellite"
    },
    {
      "id": "22285",
      "name": "SL-16 R/B",
      "noradId": 22285,
      "line1": "1 22285U 92093B   26171.28123248 -.00000177  00000+0 -66472-4 0  9994",
      "line2": "2 22285  71.0197 148.8958 0003799 182.5364 177.5740 14.15460028727677",
      "category": "satellite"
    },
    {
      "id": "22286",
      "name": "COSMOS 2228",
      "noradId": 22286,
      "line1": "1 22286U 92094A   26171.29483148  .00001467  00000+0  12300-3 0  9996",
      "line2": "2 22286  82.5176 139.0661 0016622 321.2278  38.7750 14.97595804791413",
      "category": "satellite"
    },
    {
      "id": "22566",
      "name": "SL-16 R/B",
      "noradId": 22566,
      "line1": "1 22566U 93016B   26170.97892599  .00000127  00000+0  89392-4 0  9998",
      "line2": "2 22566  71.0085   0.3430 0010047 179.5877 180.5256 14.15315458716648",
      "category": "satellite"
    },
    {
      "id": "22626",
      "name": "COSMOS 2242",
      "noradId": 22626,
      "line1": "1 22626U 93024A   26170.38669722  .00001290  00000+0  10993-3 0  9991",
      "line2": "2 22626  82.5179 169.4385 0015161 328.4519  31.5792 14.96909187795602",
      "category": "satellite"
    },
    {
      "id": "22803",
      "name": "SL-16 R/B",
      "noradId": 22803,
      "line1": "1 22803U 93059B   26171.24254392 -.00000188  00000+0 -69177-4 0  9991",
      "line2": "2 22803  70.9886 154.8605 0015327  48.8102 311.4340 14.17247858694063",
      "category": "satellite"
    },
    {
      "id": "22830",
      "name": "ARIANE 40 R/B",
      "noradId": 22830,
      "line1": "1 22830U 93061H   26171.20800643  .00000121  00000+0  60052-4 0  9994",
      "line2": "2 22830  98.4818 238.0023 0010264 347.2318  12.8605 14.32908970708789",
      "category": "satellite"
    },
    {
      "id": "23087",
      "name": "COSMOS 2278",
      "noradId": 23087,
      "line1": "1 23087U 94023A   26171.14654320  .00000003  00000+0  26229-4 0  9997",
      "line2": "2 23087  71.0551 320.7327 0010590 240.0025 120.0047 14.14398757659297",
      "category": "satellite"
    },
    {
      "id": "23088",
      "name": "SL-16 R/B",
      "noradId": 23088,
      "line1": "1 23088U 94023B   26171.28837589  .00000108  00000+0  80587-4 0  9996",
      "line2": "2 23088  70.9991 215.4186 0002554 184.5456 175.5644 14.15026840660605",
      "category": "satellite"
    },
    {
      "id": "23343",
      "name": "SL-16 R/B",
      "noradId": 23343,
      "line1": "1 23343U 94074B   26171.31654903  .00000276  00000+0  43463-4 0  9995",
      "line2": "2 23343  97.6989 197.9072 0005247 240.4341 130.3782 14.79504472702428",
      "category": "satellite"
    }
  ]
}