OBJECT_NAME,OBJECT_ID,EPOCH,MEAN_MOTION,ECCENTRICITY,INCLINATION,RA_OF_ASC_NODE,ARG_OF_PERICENTER,MEAN_ANOMALY,EPHEMERIS_TYPE,CLASSIFICATION_TYPE,NORAD_CAT_ID,ELEMENT_SET_NO,REV_AT_EPOCH,BSTAR,MEAN_MOTION_DOT,MEAN_MOTION_DDOT
COSMOS 2058,1990-010A,2026-06-19T21:57:32.904288,15.12032178,.00089014,82.4690,306.6647,349.8296,10.2753,0,U,20465,999,95768,.19277127E-3,.3343E-4,0
SL-14 R/B,1990-010B,2026-06-20T00:00:40.639104,14.83647681,.00188548,82.5014,171.3027,326.6581,33.3445,0,U,20466,999,94365,.31596934E-4,.285E-5,0
SL-14 R/B,1990-018B,2026-06-20T06:02:34.656000,14.82217814,.00175791,82.5212,127.2432,112.4298,247.8781,0,U,20511,999,93777,.35766434E-4,.31E-5,0
HST,1990-037B,2026-06-20T01:50:53.310624,15.30775367,.00016396,28.4722,60.8244,173.2571,186.8048,0,U,20580,999,78901,.17303938E-3,.5529E-4,0
SL-16 R/B,1990-046B,2026-06-20T04:47:56.767776,14.15027279,.00131045,71.0002,82.6208,157.1855,202.9852,0,U,20625,999,86289,.22302496E-4,-.4E-7,0
COSMOS 2084,1990-055A,2026-06-20T04:22:03.809856,15.06126295,.00057038,62.7899,345.8689,284.0321,76.0145,0,U,20663,999,95175,.11934884E-3,.1552E-4,0
SL-6 R/B(2),1990-055D,2026-06-20T05:46:36.106752,15.04011218,.00411536,62.7822,264.9857,5.5892,354.5658,0,U,20666,999,95361,.91710773E-4,.1088E-4,0
SL-8 R/B,1990-078B,2026-06-19T22:39:19.526400,14.92432935,.03502194,82.9018,159.1544,29.1998,332.8304,0,U,20775,999,82453,.59677066E-3,.21152E-3,0
SL-8 R/B,1991-006B,2026-06-20T04:42:58.991040,13.77506098,.00237824,82.9426,93.7952,106.5931,3.4156,0,U,21088,999,77818,.46017201E-4,.61E-6,0
OKEAN-3,1991-039A,2026-06-20T04:42:44.617536,15.05337458,.00137682,82.5163,237.4637,346.9104,13.1763,0,U,21397,999,88045,.15794789E-3,.2293E-4,0
COSMOS 2151,1991-042A,2026-06-20T06:15:31.982976,15.00445097,.0013753,82.4961,344.7143,74.7946,285.4798,0,U,21422,999,87857,.77927079E-4,.1009E-4,0
SL-14 R/B,1991-042B,2026-06-20T06:12:54.122400,14.81904056,.00154192,82.4929,124.0149,263.7050,96.2408,0,U,21423,999,86826,.330079E-4,.285E-5,0
ERS-1,1991-050A,2026-06-20T00:21:03.277728,14.39518368,.00307366,98.7796,191.7818,258.2342,101.5397,0,U,21574,999,83045,.54570348E-4,.124E-5,0
ARIANE 40 R/B,1991-050F,2026-06-20T02:24:08.624448,14.42958465,.00043319,98.1874,219.4036,115.1569,245.0072,0,U,21610,999,83376,.69104238E-4,.19E-5,0
INTERCOSMOS 25,1991-086A,2026-06-20T03:58:32.343168,12.12199832,.14839532,82.6051,248.0074,255.9628,87.2569,0,U,21819,999,50910,.16308629E-3,.818E-5,0
SL-8 R/B,1992-008B,2026-06-20T07:33:59.469696,13.75977731,.00340295,82.9260,191.4618,205.7684,165.3417,0,U,21876,999,72353,.11333798E-3,.125E-5,0
SL-8 R/B,1992-020B,2026-06-20T04:48:51.959232,13.75549166,.00295283,82.9305,77.6193,14.3464,139.5768,0,U,21938,999,71522,.59608597E-4,.73E-6,0
USA 81,1992-023A,2026-06-20T05:00:41.341248,14.32398912,.00027536,85.0074,72.2636,82.1714,277.9792,0,U,21949,999,10946,.41585541E-4,.132E-5,0
COSMOS 2219,1992-076A,2026-06-20T07:16:25.555584,14.14101168,.00167569,71.0582,163.5577,39.1666,321.0666,0,U,22219,999,73288,.19802495E-3,.33E-5,0
SL-16 R/B,1992-076B,2026-06-20T05:29:21.831360,14.16873851,.00147579,71.0008,332.3736,294.6810,237.9534,0,U,22220,999,73635,.14782437E-3,.249E-5,0
COSMOS 2221,1992-080A,2026-06-20T00:20:19.529952,14.96539106,.00135193,82.5028,181.0561,202.2400,157.8237,0,U,22236,999,79609,.89563593E-4,.1046E-4,0
SL-16 R/B,1992-093B,2026-06-20T06:44:58.486272,14.15460028,.00037997,71.0197,148.8958,182.5364,177.5740,0,U,22285,999,72767,-.66471876E-4,-.177E-5,0
COSMOS 2228,1992-094A,2026-06-20T07:04:33.439872,14.97595804,.00166223,82.5176,139.0661,321.2278,38.7750,0,U,22286,999,79141,.12299796E-3,.1467E-4,0
SL-16 R/B,1993-016B,2026-06-19T23:29:39.205536,14.15315458,.00100475,71.0085,0.3430,179.5877,180.5256,0,U,22566,999,71664,.8939248E-4,.127E-5,0
COSMOS 2242,1993-024A,2026-06-19T09:16:50.639808,14.96909187,.00151618,82.5179,169.4385,328.4519,31.5792,0,U,22626,999,79560,.10993261E-3,.129E-4,0
SL-16 R/B,1993-059B,2026-06-20T05:49:15.794688,14.17247858,.00153277,70.9886,154.8605,48.8102,311.4340,0,U,22803,999,69406,-.69176991E-4,-.188E-5,0
ARIANE 40 R/B,1993-061H,2026-06-20T04:59:31.755552,14.32908970,.00102649,98.4818,238.0023,347.2318,12.8605,0,U,22830,999,70878,.60052371E-4,.121E-5,0
COSMOS 2278,1994-023A,2026-06-20T03:31:01.332480,14.14398757,.00105909,71.0551,320.7327,240.0025,120.0047,0,U,23087,999,65929,.26228919E-4,.3E-7,0
SL-16 R/B,1994-023B,2026-06-20T06:55:15.676896,14.15026840,.00025544,70.9991,215.4186,184.5456,175.5644,0,U,23088,999,66060,.80586646E-4,.108E-5,0
SL-16 R/B,1994-074B,2026-06-20T07:35:49.836192,14.79504472,.00052473,97.6989,197.9072,240.4341,130.3782,0,U,23343,999,70242,.43462552E-4,.276E-5,0
